{
  "type": "FeatureCollection",
  "features": [
    {
      "type": "Feature",
      "properties": {
        "norad_id": 32411,
        "name": "FENGYUN 1C DEB",
        "group": "fengyun-1c-debris",
        "lat": -11.666950534636857,
        "lon": -90.61780661285401,
        "alt_km": 779.3387112451746,
        "timestamp": "2025-12-15T20:48:54.169963+00:00",
        "meta_object_name": "FENGYUN 1C DEB",
        "meta_object_id": "1999-025CZX",
        "meta_epoch": "2025-12-14T12:30:25.428096",
        "meta_mean_motion": 14.09812645,
        "meta_eccentricity": 0.01241431,
        "meta_inclination": 98.4274,
        "meta_ra_of_asc_node": 266.3669,
        "meta_arg_of_pericenter": 11.4231,
        "meta_mean_anomaly": 348.9713,
        "meta_ephemeris_type": 0,
        "meta_classification_type": "U",
        "meta_norad_cat_id": 32411,
        "meta_element_set_no": 999,
        "meta_rev_at_epoch": 65839,
        "meta_bstar": 0.0005680531,
        "meta_mean_motion_dot": 1.032e-05,
        "meta_mean_motion_ddot": 0,
        "tle_line1": "1 32411U 99025CZX 25348.52112764  .00001032  00000+0  56805-3 0  9998",
        "tle_line2": "2 32411  98.4274 266.3669 0124143  11.4231 348.9713 14.09812645658398"
      },
      "geometry": {
        "type": "Point",
        "coordinates": [
          -90.61780661285401,
          -11.666950534636857
        ]
      }
    },
    {
      "type": "Feature",
      "properties": {
        "norad_id": 32414,
        "name": "FENGYUN 1C DEB",
        "group": "fengyun-1c-debris",
        "lat": -4.890426720573022,
        "lon": -120.24518810565088,
        "alt_km": 865.4735342346821,
        "timestamp": "2025-12-15T20:48:54.169973+00:00",
        "meta_object_name": "FENGYUN 1C DEB",
        "meta_object_id": "1999-025DAA",
        "meta_epoch": "2025-12-08T10:10:57.710784",
        "meta_mean_motion": 14.18376108,
        "meta_eccentricity": 0.00450145,
        "meta_inclination": 98.8578,
        "meta_ra_of_asc_node": 53.0907,
        "meta_arg_of_pericenter": 11.0611,
        "meta_mean_anomaly": 349.1543,
        "meta_ephemeris_type": 0,
        "meta_classification_type": "U",
        "meta_norad_cat_id": 32414,
        "meta_element_set_no": 999,
        "meta_rev_at_epoch": 93671,
        "meta_bstar": 0.0020734301,
        "meta_mean_motion_dot": 4.277e-05,
        "meta_mean_motion_ddot": 0,
        "tle_line1": "1 32414U 99025DAA 25342.42427906  .00004277  00000+0  20734-2 0  9996",
        "tle_line2": "2 32414  98.8578  53.0907 0045014  11.0611 349.1543 14.18376108936713"
      },
      "geometry": {
        "type": "Point",
        "coordinates": [
          -120.24518810565088,
          -4.890426720573022
        ]
      }
    },
    {
      "type": "Feature",
      "properties": {
        "norad_id": 32419,
        "name": "FENGYUN 1C DEB",
        "group": "fengyun-1c-debris",
        "lat": -63.80088483786903,
        "lon": 88.29129969706541,
        "alt_km": 1009.1414274844656,
        "timestamp": "2025-12-15T20:48:54.169983+00:00",
        "meta_object_name": "FENGYUN 1C DEB",
        "meta_object_id": "1999-025DAF",
        "meta_epoch": "2025-12-11T15:09:56.013984",
        "meta_mean_motion": 14.09908253,
        "meta_eccentricity": 0.02839501,
        "meta_inclination": 97.9459,
        "meta_ra_of_asc_node": 281.0334,
        "meta_arg_of_pericenter": 32.1797,
        "meta_mean_anomaly": 329.6358,
        "meta_ephemeris_type": 0,
        "meta_classification_type": "U",
        "meta_norad_cat_id": 32419,
        "meta_element_set_no": 999,
        "meta_rev_at_epoch": 63555,
        "meta_bstar": 0.0013854285,
        "meta_mean_motion_dot": 3.513e-05,
        "meta_mean_motion_ddot": 0,
        "tle_line1": "1 32419U 99025DAF 25345.63189831  .00003513  00000+0  13854-2 0  9996",
        "tle_line2": "2 32419  97.9459 281.0334 0283950  32.1797 329.6358 14.09908253635552"
      },
      "geometry": {
        "type": "Point",
        "coordinates": [
          88.29129969706541,
          -63.80088483786903
        ]
      }
    },
    {
      "type": "Feature",
      "properties": {
        "norad_id": 32422,
        "name": "FENGYUN 1C DEB",
        "group": "fengyun-1c-debris",
        "lat": -81.02152135694942,
        "lon": -178.3826405864101,
        "alt_km": 693.7187125327418,
        "timestamp": "2025-12-15T20:48:54.169993+00:00",
        "meta_object_name": "FENGYUN 1C DEB",
        "meta_object_id": "1999-025DAJ",
        "meta_epoch": "2025-12-10T15:48:54.548352",
        "meta_mean_motion": 13.98002768,
        "meta_eccentricity": 0.0298224,
        "meta_inclination": 97.8401,
        "meta_ra_of_asc_node": 116.4609,
        "meta_arg_of_pericenter": 298.6669,
        "meta_mean_anomaly": 58.4812,
        "meta_ephemeris_type": 0,
        "meta_classification_type": "U",
        "meta_norad_cat_id": 32422,
        "meta_element_set_no": 999,
        "meta_rev_at_epoch": 63104,
        "meta_bstar": 0.00051946,
        "meta_mean_motion_dot": 1.039e-05,
        "meta_mean_motion_ddot": 0,
        "tle_line1": "1 32422U 99025DAJ 25344.65896468  .00001039  00000+0  51946-3 0  9998",
        "tle_line2": "2 32422  97.8401 116.4609 0298224 298.6669  58.4812 13.98002768631040"
      },
      "geometry": {
        "type": "Point",
        "coordinates": [
          -178.3826405864101,
          -81.02152135694942
        ]
      }
    },
    {
      "type": "Feature",
      "properties": {
        "norad_id": 32425,
        "name": "FENGYUN 1C DEB",
        "group": "fengyun-1c-debris",
        "lat": 66.42684655238295,
        "lon": 121.80999406858689,
        "alt_km": 951.0381979515432,
        "timestamp": "2025-12-15T20:48:54.170003+00:00",
        "meta_object_name": "FENGYUN 1C DEB",
        "meta_object_id": "1999-025DAM",
        "meta_epoch": "2025-12-12T16:13:12.115488",
        "meta_mean_motion": 14.16741504,
        "meta_eccentricity": 0.02316015,
        "meta_inclination": 96.7012,
        "meta_ra_of_asc_node": 135.0318,
        "meta_arg_of_pericenter": 299.6477,
        "meta_mean_anomaly": 58.1818,
        "meta_ephemeris_type": 0,
        "meta_classification_type": "U",
        "meta_norad_cat_id": 32425,
        "meta_element_set_no": 999,
        "meta_rev_at_epoch": 69534,
        "meta_bstar": 0.00075748036,
        "meta_mean_motion_dot": 1.938e-05,
        "meta_mean_motion_ddot": 0,
        "tle_line1": "1 32425U 99025DAM 25346.67583467  .00001938  00000+0  75748-3 0  9991",
        "tle_line2": "2 32425  96.7012 135.0318 0231601 299.6477  58.1818 14.16741504695342"
      },
      "geometry": {
        "type": "Point",
        "coordinates": [
          121.80999406858689,
          66.42684655238295
        ]
      }
    },
    {
      "type": "Feature",
      "properties": {
        "norad_id": 32430,
        "name": "FENGYUN 1C DEB",
        "group": "fengyun-1c-debris",
        "lat": 29.519715050023922,
        "lon": 9.34078796036198,
        "alt_km": 1160.1755276608692,
        "timestamp": "2025-12-15T20:48:54.170013+00:00",
        "meta_object_name": "FENGYUN 1C DEB",
        "meta_object_id": "1999-025DAS",
        "meta_epoch": "2025-12-13T07:19:29.770752",
        "meta_mean_motion": 13.70133055,
        "meta_eccentricity": 0.03694471,
        "meta_inclination": 98.6979,
        "meta_ra_of_asc_node": 11.9904,
        "meta_arg_of_pericenter": 268.4615,
        "meta_mean_anomaly": 87.4194,
        "meta_ephemeris_type": 0,
        "meta_classification_type": "U",
        "meta_norad_cat_id": 32430,
        "meta_element_set_no": 999,
        "meta_rev_at_epoch": 91211,
        "meta_bstar": 0.0029330039,
        "meta_mean_motion_dot": 4.141e-05,
        "meta_mean_motion_ddot": 0,
        "tle_line1": "1 32430U 99025DAS 25347.30520568  .00004141  00000+0  29330-2 0  9995",
        "tle_line2": "2 32430  98.6979  11.9904 0369447 268.4615  87.4194 13.70133055912116"
      },
      "geometry": {
        "type": "Point",
        "coordinates": [
          9.34078796036198,
          29.519715050023922
        ]
      }
    },
    {
      "type": "Feature",
      "properties": {
        "norad_id": 32432,
        "name": "FENGYUN 1C DEB",
        "group": "fengyun-1c-debris",
        "lat": 70.20887347664807,
        "lon": 2.4342678736961827,
        "alt_km": 797.4653821350275,
        "timestamp": "2025-12-15T20:48:54.170023+00:00",
        "meta_object_name": "FENGYUN 1C DEB",
        "meta_object_id": "1999-025DAU",
        "meta_epoch": "2025-12-14T08:06:41.976576",
        "meta_mean_motion": 14.52505993,
        "meta_eccentricity": 0.01724898,
        "meta_inclination": 98.1719,
        "meta_ra_of_asc_node": 24.4802,
        "meta_arg_of_pericenter": 300.7515,
        "meta_mean_anomaly": 57.6792,
        "meta_ephemeris_type": 0,
        "meta_classification_type": "U",
        "meta_norad_cat_id": 32432,
        "meta_element_set_no": 999,
        "meta_rev_at_epoch": 70718,
        "meta_bstar": 0.0015465978,
        "meta_mean_motion_dot": 7.632e-05,
        "meta_mean_motion_ddot": 0,
        "tle_line1": "1 32432U 99025DAU 25348.33798584  .00007632  00000+0  15466-2 0  9999",
        "tle_line2": "2 32432  98.1719  24.4802 0172489 300.7515  57.6792 14.52505993707185"
      },
      "geometry": {
        "type": "Point",
        "coordinates": [
          2.4342678736961827,
          70.20887347664807
        ]
      }
    }
  ]
}